{
  "type": "FeatureCollection",
  "features": [
    {
      "type": "Feature",
      "properties": {
        "norad_id": 15362,
        "name": "NOVA 3",
        "group": "nnss",
        "lat": -45.70635939479632,
        "lon": 80.63069109975984,
        "alt_km": 1158.7906048014447,
        "timestamp": "2025-12-10T05:46:14.090771+00:00",
        "meta_object_name": "NOVA 3",
        "meta_object_id": "1984-110A",
        "meta_epoch": "2025-12-09T13:43:18.996096",
        "meta_mean_motion": 13.23044071,
        "meta_eccentricity": 0.0030735,
        "meta_inclination": 90.1223,
        "meta_ra_of_asc_node": 80.4974,
        "meta_arg_of_pericenter": 340.9141,
        "meta_mean_anomaly": 30.4969,
        "meta_ephemeris_type": 0,
        "meta_classification_type": "U",
        "meta_norad_cat_id": 15362,
        "meta_element_set_no": 999,
        "meta_rev_at_epoch": 98657,
        "meta_bstar": 0.00021782,
        "meta_mean_motion_dot": 1e-06,
        "meta_mean_motion_ddot": 0,
        "tle_line1": "1 15362U 84110A   25343.57174764  .00000100  00000+0  21782-3 0  9992",
        "tle_line2": "2 15362  90.1223  80.4974 0030735 340.9141  30.4969 13.23044071986579"
      },
      "geometry": {
        "type": "Point",
        "coordinates": [
          80.63069109975984,
          -45.70635939479632
        ]
      }
    },
    {
      "type": "Feature",
      "properties": {
        "norad_id": 15935,
        "name": "OSCAR 30",
        "group": "nnss",
        "lat": -82.06684167649439,
        "lon": 100.99102365137726,
        "alt_km": 1257.5220923918869,
        "timestamp": "2025-12-10T05:46:14.090782+00:00",
        "meta_object_name": "OSCAR 30",
        "meta_object_id": "1985-066A",
        "meta_epoch": "2025-12-09T18:25:09.306048",
        "meta_mean_motion": 13.3607769,
        "meta_eccentricity": 0.0169422,
        "meta_inclination": 90.165,
        "meta_ra_of_asc_node": 99.7985,
        "meta_arg_of_pericenter": 92.2003,
        "meta_mean_anomaly": 72.3872,
        "meta_ephemeris_type": 0,
        "meta_classification_type": "U",
        "meta_norad_cat_id": 15935,
        "meta_element_set_no": 999,
        "meta_rev_at_epoch": 96413,
        "meta_bstar": 0.00028719,
        "meta_mean_motion_dot": 1.7e-06,
        "meta_mean_motion_ddot": 0,
        "tle_line1": "1 15935U 85066A   25343.76746882  .00000170  00000+0  28719-3 0  9990",
        "tle_line2": "2 15935  90.1650  99.7985 0169422  92.2003  72.3872 13.36077690964137"
      },
      "geometry": {
        "type": "Point",
        "coordinates": [
          100.99102365137726,
          -82.06684167649439
        ]
      }
    },
    {
      "type": "Feature",
      "properties": {
        "norad_id": 15936,
        "name": "OSCAR 24",
        "group": "nnss",
        "lat": -7.20065617187691,
        "lon": 92.28369893336976,
        "alt_km": 1157.9996848966239,
        "timestamp": "2025-12-10T05:46:14.090793+00:00",
        "meta_object_name": "OSCAR 24",
        "meta_object_id": "1985-066B",
        "meta_epoch": "2025-12-09T13:41:01.087008",
        "meta_mean_motion": 13.35935118,
        "meta_eccentricity": 0.0170472,
        "meta_inclination": 90.1788,
        "meta_ra_of_asc_node": 92.2493,
        "meta_arg_of_pericenter": 99.1842,
        "meta_mean_anomaly": 273.8521,
        "meta_ephemeris_type": 0,
        "meta_classification_type": "U",
        "meta_norad_cat_id": 15936,
        "meta_element_set_no": 999,
        "meta_rev_at_epoch": 96601,
        "meta_bstar": 0.00024605,
        "meta_mean_motion_dot": 1.47e-06,
        "meta_mean_motion_ddot": 0,
        "tle_line1": "1 15936U 85066B   25343.57015147  .00000147  00000+0  24605-3 0  9997",
        "tle_line2": "2 15936  90.1788  92.2493 0170472  99.1842 273.8521 13.35935118966011"
      },
      "geometry": {
        "type": "Point",
        "coordinates": [
          92.28369893336976,
          -7.20065617187691
        ]
      }
    },
    {
      "type": "Feature",
      "properties": {
        "norad_id": 17070,
        "name": "POLAR BEAR",
        "group": "nnss",
        "lat": -18.15844199881313,
        "lon": 3.999063908441683,
        "alt_km": 976.2507975763283,
        "timestamp": "2025-12-10T05:46:14.090804+00:00",
        "meta_object_name": "POLAR BEAR",
        "meta_object_id": "1986-088A",
        "meta_epoch": "2025-12-09T11:40:55.884288",
        "meta_mean_motion": 13.75249895,
        "meta_eccentricity": 0.00407734,
        "meta_inclination": 89.6176,
        "meta_ra_of_asc_node": 183.9039,
        "meta_arg_of_pericenter": 128.6786,
        "meta_mean_anomaly": 299.7884,
        "meta_ephemeris_type": 0,
        "meta_classification_type": "U",
        "meta_norad_cat_id": 17070,
        "meta_element_set_no": 999,
        "meta_rev_at_epoch": 95934,
        "meta_bstar": 0.00016163387,
        "meta_mean_motion_dot": 1.67e-06,
        "meta_mean_motion_ddot": 0,
        "tle_line1": "1 17070U 86088A   25343.48675792  .00000167  00000+0  16163-3 0  9993",
        "tle_line2": "2 17070  89.6176 183.9039 0040773 128.6786 299.7884 13.75249895959346"
      },
      "geometry": {
        "type": "Point",
        "coordinates": [
          3.999063908441683,
          -18.15844199881313
        ]
      }
    },
    {
      "type": "Feature",
      "properties": {
        "norad_id": 18361,
        "name": "OSCAR 27",
        "group": "nnss",
        "lat": 8.372043325673316,
        "lon": 79.12369317825922,
        "alt_km": 1148.9781576864425,
        "timestamp": "2025-12-10T05:46:14.090815+00:00",
        "meta_object_name": "OSCAR 27",
        "meta_object_id": "1987-080A",
        "meta_epoch": "2025-12-09T13:39:29.711232",
        "meta_mean_motion": 13.4490578,
        "meta_eccentricity": 0.0102683,
        "meta_inclination": 90.3743,
        "meta_ra_of_asc_node": 79.1537,
        "meta_arg_of_pericenter": 232.9828,
        "meta_mean_anomaly": 126.1891,
        "meta_ephemeris_type": 0,
        "meta_classification_type": "U",
        "meta_norad_cat_id": 18361,
        "meta_element_set_no": 999,
        "meta_rev_at_epoch": 87514,
        "meta_bstar": 0.00029988,
        "meta_mean_motion_dot": 1.89e-06,
        "meta_mean_motion_ddot": 0,
        "tle_line1": "1 18361U 87080A   25343.56909388  .00000189  00000+0  29988-3 0  9993",
        "tle_line2": "2 18361  90.3743  79.1537 0102683 232.9828 126.1891 13.44905780875147"
      },
      "geometry": {
        "type": "Point",
        "coordinates": [
          79.12369317825922,
          8.372043325673316
        ]
      }
    },
    {
      "type": "Feature",
      "properties": {
        "norad_id": 18362,
        "name": "OSCAR 29",
        "group": "nnss",
        "lat": 24.80504117502845,
        "lon": 79.46390701744151,
        "alt_km": 1141.887666183512,
        "timestamp": "2025-12-10T05:46:14.090826+00:00",
        "meta_object_name": "OSCAR 29",
        "meta_object_id": "1987-080B",
        "meta_epoch": "2025-12-09T13:37:43.650048",
        "meta_mean_motion": 13.4444762,
        "meta_eccentricity": 0.0103785,
        "meta_inclination": 90.3754,
        "meta_ra_of_asc_node": 79.6123,
        "meta_arg_of_pericenter": 256.3819,
        "meta_mean_anomaly": 114.2703,
        "meta_ephemeris_type": 0,
        "meta_classification_type": "U",
        "meta_norad_cat_id": 18362,
        "meta_element_set_no": 999,
        "meta_rev_at_epoch": 87467,
        "meta_bstar": 0.00027686,
        "meta_mean_motion_dot": 1.74e-06,
        "meta_mean_motion_ddot": 0,
        "tle_line1": "1 18362U 87080B   25343.56786632  .00000174  00000+0  27686-3 0  9996",
        "tle_line2": "2 18362  90.3754  79.6123 0103785 256.3819 114.2703 13.44447620874671"
      },
      "geometry": {
        "type": "Point",
        "coordinates": [
          79.46390701744151,
          24.80504117502845
        ]
      }
    },
    {
      "type": "Feature",
      "properties": {
        "norad_id": 19070,
        "name": "OSCAR 23",
        "group": "nnss",
        "lat": -49.19819695530356,
        "lon": 16.68796199090242,
        "alt_km": 1239.9137886487188,
        "timestamp": "2025-12-10T05:46:14.090836+00:00",
        "meta_object_name": "OSCAR 23",
        "meta_object_id": "1988-033A",
        "meta_epoch": "2025-12-09T12:36:56.310336",
        "meta_mean_motion": 13.27786505,
        "meta_eccentricity": 0.0189262,
        "meta_inclination": 90.3215,
        "meta_ra_of_asc_node": 16.293,
        "meta_arg_of_pericenter": 188.8642,
        "meta_mean_anomaly": 305.478,
        "meta_ephemeris_type": 0,
        "meta_classification_type": "U",
        "meta_norad_cat_id": 19070,
        "meta_element_set_no": 999,
        "meta_rev_at_epoch": 82210,
        "meta_bstar": 0.00020442,
        "meta_mean_motion_dot": 1.1e-06,
        "meta_mean_motion_ddot": 0,
        "tle_line1": "1 19070U 88033A   25343.52565174  .00000110  00000+0  20442-3 0  9997",
        "tle_line2": "2 19070  90.3215  16.2930 0189262 188.8642 305.4780 13.27786505822109"
      },
      "geometry": {
        "type": "Point",
        "coordinates": [
          16.68796199090242,
          -49.19819695530356
        ]
      }
    }
  ]
}